NUSAT-1 (FRESCO)        
1 41557U 16033B   22074.54871748  .00015091  00000+0  48785-3 0  9994
2 41557  97.3853 172.2983 0011451 358.5664 129.4934 15.32114289322993
BEESAT-4                
1 41619U 16040W   22073.72133805  .00014708  00000+0  53482-3 0  9999
2 41619  97.2318 127.0099 0011633  95.1141 265.1427 15.28289557306240
CAS-2T & KS-1Q          
1 41847U 16066G   22073.88601993  .00001187  00000+0  18651-3 0  9991
2 41847  98.5625 138.6222 0365356 132.5845 230.6788 14.38413989280757
NAYIF-1 (EO-88)         
1 42017U 17008BX  22073.72038210  .00017263  00000+0  57189-3 0  9998
2 42017  97.2811 141.3887 0004781 212.3540 147.7409 15.31345619282566
ZHUHAI-1 02 (CAS-4B)    
1 42759U 17034B   22074.54498800  .00004675  00000+0  28730-3 0  9999
2 42759  43.0159 130.0083 0007138  51.2192  57.8764 15.11078104262145
ZHUHAI-1 01 (CAS-4A)    
1 42761U 17034D   22074.52664352  .00005066  00000+0  30940-3 0  9998
2 42761  43.0173 128.9639 0007477  54.8391  88.7541 15.11168292262147
MAX VALIER SAT          
1 42778U 17036P   22073.64313481  .00008401  00000+0  33617-3 0  9994
2 42778  97.2205 118.0492 0009714 306.3828  53.6513 15.25276790262446
RADFXSAT (FOX-1B)       
1 43017U 17073E   22073.71575621  .00004171  00000+0  31830-3 0  9991
2 43017  97.6868 331.7791 0252613 137.6015 224.5025 14.80528851233093
FOX-1D (AO-92)          
1 43137U 18004AC  22073.68520248  .00011102  00000+0  41691-3 0  9998
2 43137  97.3769 149.8092 0007568 347.6312  12.4740 15.27337952231879
DIWATA-2B               
1 43678U 18084H   22074.42842166  .00001069  00000+0  11127-3 0  9997
2 43678  97.9519 206.6988 0008967 230.7829 129.2602 14.91961780183831
ES'HAIL 2               
1 43700U 18090A   22074.00427885  .00000141  00000+0  00000+0 0  9995
2 43700   0.0269 163.8836 0002400 215.7183 180.3200  1.00270273 12325
FOX-1CLIFF (AO-95)      
1 43770U 18099N   22073.75553598  .00002543  00000+0  23214-3 0  9997
2 43770  97.6320 142.5577 0013121 229.1885 130.8199 14.95884207178852
ITASAT 1                
1 43786U 18099AE  22073.76046079  .00002024  00000+0  18472-3 0  9990
2 43786  97.6342 143.4251 0013934 221.8372 138.1786 14.96105220178893
JY1SAT (JO-97)          
1 43803U 18099AX  22073.73867805  .00004152  00000+0  37011-3 0  9999
2 43803  97.6303 143.1424 0013876 219.7003 140.3204 14.96470264178906
UWE-4                   
1 43880U 18111E   22073.73888626  .00003634  00000+0  31626-3 0  9993
2 43880  97.6742 341.7155 0010669 279.2023  80.7992 14.97518233175521
NEXUS (FO-99)           
1 43937U 19003F   22073.82562638  .00012666  00000+0  45937-3 0  9994
2 43937  97.1443 110.9625 0023309 129.4388 230.8920 15.28208449175518
PSAT2 (NO-104)          
1 44354U 19036R   22073.79214241  .00060776 -53226-5  65261-3 0  9996
2 44354  28.5245 108.8000 0269114 353.0507   6.6405 15.28584928150123
BRICSAT2 (NO-103)       
1 44355U 19036S   22074.00145780  .00228817  84778-5  97612-3 0  9995
2 44355  28.5217 352.8169 0118979 183.2306 176.7540 15.73682120151293
JAISAT-1                
1 44419U 19038F   22073.88109445  .00009284  00000+0  49019-3 0  9994
2 44419  97.6257  43.4261 0022165  98.5179 261.8566 15.15534545148729
DUCHIFAT-3              
1 44854U 19089C   22074.05484200  .00004547  00000+0  36184-3 0  9994
2 44854  36.9652 299.6477 0007145 185.2206 330.0703 15.00300300123748
CAS-6 (TO-108)          
1 44881U 19093C   22074.50523570  .00001001  00000+0  13388-3 0  9996
2 44881  97.8980 155.0534 0016380 129.5722 230.6955 14.81595960120862
RS-44 & BREEZE-KM R/B   
1 44909U 19096E   22073.66882801  .00000039  00000+0  11011-3 0  9992
2 44909  82.5185 293.2627 0217315 181.0888 178.9770 12.79712226103384
ORBITAL FACTORY 2 (OF-2)
1 45113U 19071C   22073.54635071  .00024211  00000+0  59474-3 0  9998
2 45113  51.6395 164.5818 0009209 192.5174 167.5584 15.40487981118729
HUSKYSAT-1 (HO-107)     
1 45119U 19071J   22073.51249067  .00022563  00000+0  56215-3 0  9995
2 45119  51.6402 164.3386 0008875 188.0973 171.9870 15.40103716118714
BY70-2                  
1 45857U 20042B   22074.46066354  .00008697  00000+0  11983-2 0  9999
2 45857  97.9597 152.2891 0011505  68.4429 291.7993 14.78414934 91566
SALSAT                  
1 46495U 20068K   22073.83835899  .00002951  00000+0  21763-3 0  9999
2 46495  97.7221  15.1985 0015385 234.7113 125.2674 15.03999845 79961
BY70-3                  
1 46839U 20079N   22074.48072403  .00023868  00000+0  64396-3 0  9998
2 46839  97.2087 148.0629 0005048 318.8886 169.3637 15.37771724 75780
RADFXSAT-2 (AO-109)     
1 47311U 21002C   22074.01973244  .00009358  00000+0  39802-3 0  9995
2 47311  60.6880 357.2589 0016911 200.8552 159.1848 15.23544390 64074
UVSQ-SAT                
1 47438U 21006AB  22073.70195592  .00007255  00000+0  39796-3 0  9992
2 47438  97.4505 134.6887 0011049 239.6898 120.3241 15.14410415 62934
DIY-1 (ARDUIQUBE)       
1 47963U 21022AH  22073.70109844  .00016037  00000+0  97866-3 0  9998
2 47963  97.5415 336.3508 0020266  97.9006 262.4524 15.10226897 52639
XW-3 (CAS-9)            
1 50466U 21131B   22074.12960879  .00000265  00000+0  10129-3 0  9994
2 50466  98.5856 151.4097 0005713  80.0740 280.1056 14.38449750 11353
